     2.100          NAVIGATION                              RINEX VERSION / TYPE
fic2rin                                 07/28/2009 01:56:57 PGM / RUN BY / DATE
                                                            END OF HEADER
26 09  7 27 10  0  0.0  .647725537419D-04  .000000000000D+00  .000000000000D+00
     .620000000000D+02 -.237187500000D+02  .385658921385D-08 -.619399102219D+00
    -.108033418655D-05  .202698020730D-01  .860169529915D-05  .515491458893D+04
     .122400000000D+06 -.130385160446D-06  .628056736261D+00  .311061739922D-06
     .992653989669D+00  .232000000000D+03  .102739512098D+01 -.803533470394D-08
    -.274654297597D-09  .100000000000D+01  .154200000000D+04  .000000000000D+00
     .240000000000D+01  .000000000000D+00 -.651925802231D-08  .620000000000D+02
     .115206000000D+06  .400000000000D+01
27 09  7 27 10  0  0.0  .691236928105D-04  .329691829393D-11  .000000000000D+00
     .900000000000D+02 -.312500000000D+00  .407945563999D-08  .204014199642D+01
    -.353902578354D-06  .213071921607D-01  .782683491707D-05  .515376320839D+04
     .122400000000D+06  .327825546265D-06  .156125965307D+01 -.266358256340D-06
     .974886091805D+00  .226250000000D+03 -.156723673843D+01 -.761245994666D-08
     .792890169915D-10  .100000000000D+01  .154200000000D+04  .000000000000D+00
     .340000000000D+01  .000000000000D+00 -.419095158577D-08  .900000000000D+02
     .115206000000D+06  .400000000000D+01
28 09  7 27 10  0  0.0 -.260560773313D-04 -.113686837722D-12  .000000000000D+00
     .660000000000D+02 -.348437500000D+02  .441054085959D-08  .293058831625D+01
    -.181235373020D-05  .149652239634D-01  .547803938389D-05  .515364374733D+04
     .122400000000D+06  .875443220139D-07  .269691189396D+01 -.102445483208D-06
     .967431931709D+00  .274406250000D+03 -.202116307303D+01 -.781996859022D-08
     .171435712414D-10  .100000000000D+01  .154200000000D+04  .000000000000D+00
     .340000000000D+01  .000000000000D+00 -.107102096081D-07  .660000000000D+02
     .115206000000D+06  .400000000000D+01
29 09  7 27 10  0  0.0  .432026572526D-04  .352429196937D-11  .000000000000D+00
     .570000000000D+02 -.242812500000D+02  .430732227440D-08 -.130565667229D+01
    -.118464231491D-05  .330763019156D-02  .103320926428D-04  .515364523697D+04
     .122400000000D+06 -.484287738800D-07 -.254408042382D+01  .800937414169D-07
     .960211930670D+00  .181593750000D+03 -.129293408922D+01 -.794104506212D-08
    -.521450291926D-10  .100000000000D+01  .154200000000D+04  .000000000000D+00
     .240000000000D+01  .000000000000D+00 -.884756445885D-08  .570000000000D+02
     .115206000000D+06  .400000000000D+01
30 09  7 27 10  0  0.0  .164113473147D-03  .284217094304D-11  .000000000000D+00
     .320000000000D+02 -.325000000000D+02  .474448334106D-08 -.284813663824D+01
    -.155717134476D-05  .117087197723D-01  .500865280628D-05  .515356444359D+04
     .122400000000D+06  .119209289551D-06  .262304449635D+01  .931322574615D-08
     .952869244932D+00  .278031250000D+03  .143186034893D+01 -.809319425688D-08
     .225009372544D-10  .100000000000D+01  .154200000000D+04  .000000000000D+00
     .240000000000D+01  .000000000000D+00 -.838190317154D-08  .320000000000D+02
     .115206000000D+06  .400000000000D+01
31 09  7 27 10  0  0.0 -.642784871161D-04 -.454747350886D-12  .000000000000D+00
     .320000000000D+02  .172812500000D+02  .424124809358D-08 -.530149513072D+00
     .935047864914D-06  .699014007114D-02  .825896859169D-05  .515375640297D+04
     .122400000000D+06 -.169500708580D-06  .161724922184D+01  .279396772385D-07
     .973292978405D+00  .229875000000D+03 -.113810410622D+01 -.804962101331D-08
     .266439669710D-09  .100000000000D+01  .154200000000D+04  .000000000000D+00
     .240000000000D+01  .000000000000D+00 -.130385160446D-07  .320000000000D+02
     .115206000000D+06  .400000000000D+01
32 09  7 27 10  0  0.0  .225260388106D-03 -.625277607469D-11  .000000000000D+00
     .430000000000D+02  .209375000000D+01  .505199615020D-08  .402411168075D+00
     .502914190292D-07  .132343362784D-01  .444240868092D-05  .515376215553D+04
     .122400000000D+06 -.121071934700D-06 -.390388168526D+00 -.145286321640D-06
     .963286640687D+00  .300093750000D+03 -.113938386841D+01 -.869286209260D-08
    -.104290058385D-09  .100000000000D+01  .154200000000D+04  .000000000000D+00
     .240000000000D+01  .000000000000D+00 -.325962901115D-08  .430000000000D+02
     .115206000000D+06  .400000000000D+01
28 09  7 27  9 59 44.0 -.260514207184D-04 -.113686837722D-12  .000000000000D+00
     .300000000000D+01 -.348437500000D+02  .441054085959D-08  .292825449963D+01
    -.181235373020D-05  .149652216351D-01  .547803938389D-05  .515364375496D+04
     .122384000000D+06  .875443220139D-07  .269691203586D+01 -.102445483208D-06
     .967431914154D+00  .274406250000D+03 -.202116306425D+01 -.781996859022D-08
     .171435712414D-10  .100000000000D+01  .154200000000D+04  .000000000000D+00
     .240000000000D+01  .000000000000D+00 -.107102096081D-07  .300000000000D+01
     .116886000000D+06  .400000000000D+01
12 09  7 27  9 59 44.0 -.244035385549D-03  .602540239925D-11  .000000000000D+00
     .000000000000D+00 -.340625000000D+02  .451018786743D-08 -.352798624530D+00
    -.174157321453D-05  .320273742545D-02  .542029738426D-05  .515360824966D+04
     .122384000000D+06 -.558793544769D-08  .267177534064D+01 -.102445483208D-06
     .967801028866D+00  .281718750000D+03 -.627917599586D+00 -.816926885427D-08
    -.492877673191D-10  .100000000000D+01  .154200000000D+04  .000000000000D+00
     .240000000000D+01  .000000000000D+00 -.116415321827D-07  .000000000000D+00
     .118356000000D+06  .400000000000D+01
 4 09  7 27  9 59 44.0 -.192934647202D-03 -.165982783074D-10  .000000000000D+00
     .100000000000D+01  .761562500000D+02  .498377902297D-08 -.207662080085D+01
     .354275107384D-05  .863683514763D-02  .912509858608D-05  .515377995872D+04
     .122384000000D+06  .763684511185D-07 -.151845692004D+01 -.128522515297D-06
     .939853368734D+00  .190312500000D+03  .495435703217D+00 -.820998483597D-08
     .396087927223D-09  .100000000000D+01  .154200000000D+04  .000000000000D+00
     .240000000000D+01  .000000000000D+00 -.605359673500D-08  .100000000000D+01
     .119766000000D+06  .400000000000D+01
 9 09  7 27  9 59 44.0  .687437132001D-04  .204636307899D-11  .000000000000D+00
     .460000000000D+02  .175937500000D+02  .414124392800D-08 -.129435318998D+01
     .111386179924D-05  .207434225595D-01  .808015465736D-05  .515363441086D+04
     .122384000000D+06 -.109896063805D-06  .158549102145D+01  .484287738800D-06
     .976834262737D+00  .233812500000D+03  .149783173105D+01 -.804676375144D-08
     .125005206969D-09  .100000000000D+01  .154200000000D+04  .000000000000D+00
     .240000000000D+01  .000000000000D+00 -.558793544769D-08  .460000000000D+02
     .121566000000D+06  .400000000000D+01
 4 09  7 27 11 59 44.0 -.193054322153D-03 -.165982783074D-10  .000000000000D+00
     .200000000000D+01  .853750000000D+02  .492913388964D-08 -.102665460209D+01
     .451691448689D-05  .863668287639D-02  .864826142788D-05  .515377746010D+04
     .129584000000D+06  .219792127609D-06 -.151851569424D+01 -.372529029846D-07
     .939855789863D+00  .193656250000D+03  .495588818075D+00 -.829927426951D-08
     .314298806093D-09  .100000000000D+01  .154200000000D+04  .000000000000D+00
     .240000000000D+01  .000000000000D+00 -.605359673500D-08  .200000000000D+01
     .122406000000D+06  .400000000000D+01
 9 09  7 27 11 59 44.0  .687581487000D-04  .204636307899D-11  .000000000000D+00
     .500000000000D+02  .468750000000D+00  .436232456547D-08 -.244242430043D+00
     .193715095520D-06  .207417288329D-01  .842474400997D-05  .515362942123D+04
     .129584000000D+06 -.203028321266D-06  .158543071558D+01  .102445483208D-06
     .976834651873D+00  .228156250000D+03  .149792643305D+01 -.833177562333D-08
     .243581574722D-09  .100000000000D+01  .154200000000D+04  .000000000000D+00
     .240000000000D+01  .000000000000D+00 -.558793544769D-08  .500000000000D+02
     .122406000000D+06  .400000000000D+01
12 09  7 27 11 59 44.0 -.243991613388D-03  .602540239925D-11  .000000000000D+00
     .100000000000D+01 -.273125000000D+02  .464805075283D-08  .697478003981D+00
    -.164657831192D-05  .320157944225D-02  .544264912605D-05  .515360601997D+04
     .129584000000D+06  .502914190292D-07  .267171650207D+01 -.409781932831D-07
     .967800388108D+00  .276968750000D+03 -.627972242502D+00 -.820534178542D-08
    -.814319633967D-10  .100000000000D+01  .154200000000D+04  .000000000000D+00
     .240000000000D+01  .000000000000D+00 -.116415321827D-07  .100000000000D+01
     .122406000000D+06  .400000000000D+01
28 09  7 27 11 59 44.0 -.260523520410D-04 -.113686837722D-12  .000000000000D+00
     .400000000000D+01 -.350000000000D+02  .445232831449D-08 -.230472995527D+01
    -.176578760147D-05  .149651734391D-01  .564008951187D-05  .515364386368D+04
     .129584000000D+06  .124797224998D-06  .269685579690D+01 -.130385160446D-06
     .967432025336D+00  .273968750000D+03 -.202116539468D+01 -.782961184905D-08
    -.142863093678D-11  .100000000000D+01  .154200000000D+04  .000000000000D+00
     .240000000000D+01  .000000000000D+00 -.107102096081D-07  .400000000000D+01
     .122406000000D+06  .400000000000D+01
 1 09  7 27 12  0  0.0 -.621071085334D-04  .261479726760D-11  .000000000000D+00
     .980000000000D+02 -.275937500000D+02  .596667710748D-08 -.137729077037D+01
    -.152550637722D-05  .366137153469D-02  .534392893314D-05  .515373528862D+04
     .129600000000D+06  .102445483208D-06  .265922790397D+01  .316649675369D-07
     .961678684520D+00  .278843750000D+03  .940011182485D+00 -.820891336276D-08
    -.925038531568D-10  .100000000000D+01  .154200000000D+04  .000000000000D+00
     .340000000000D+01  .630000000000D+02 -.130385160446D-07  .980000000000D+02
     .122406000000D+06  .400000000000D+01
